     2.10           N: GPS NAV DATA                         RINEX VERSION / TYPE
teqc  2009Mar23                         20120422 21:04:29UTCPGM / RUN BY / DATE
Linux 2.4.20-8|Pentium IV|gcc -static|Linux|486/DX+         COMMENT
                                                            END OF HEADER
14 12  4 22 20  0  0.0 2.008494921029D-04 1.023181539495D-12 0.000000000000D+00
    4.400000000000D+01 3.434375000000D+01 4.517331022112D-09-1.208573045644D+00
    1.955777406693D-06 6.218662252650D-03 1.408159732819D-06 5.153579128265D+03
    7.200000000000D+04 5.960464477539D-08 1.557188796787D+00 9.872019290924D-08
    9.786639621737D-01 3.622500000000D+02-2.064071618925D+00-8.305703108730D-09
    1.557207721095D-10 1.000000000000D+00 1.685000000000D+03 0.000000000000D+00
    2.000000000000D+00 0.000000000000D+00-8.847564458847D-09 4.400000000000D+01
    6.481800000000D+04 4.000000000000D+00
32 12  4 22 20  0  0.0-4.357546567917D-04-4.433786671143D-12 0.000000000000D+00
    1.160000000000D+02 1.220625000000D+02 4.370182035623D-09-3.097407836018D+00
    6.290152668953D-06 1.181355479639D-02 1.006573438644D-05 5.153706241608D+03
    7.200000000000D+04-1.005828380585D-07 5.325068651169D-01 1.564621925354D-07
    9.523081105181D-01 1.749375000000D+02-5.884701423149D-01-7.789253025082D-09
    1.960795960737D-10 1.000000000000D+00 1.685000000000D+03 0.000000000000D+00
    2.800000000000D+00 0.000000000000D+00-2.793967723846D-09 1.160000000000D+02
    6.481800000000D+04 4.000000000000D+00
12 12  4 22 20  0  0.0 6.496114656329D-05 2.046363078989D-12 0.000000000000D+00
    8.000000000000D+00-1.653125000000D+01 3.837659853937D-09 2.469504556937D+00
   -9.313225746155D-07 4.008565330878D-03 1.134909689426D-05 5.153532978058D+03
    7.200000000000D+04-9.126961231232D-08-2.672868640759D+00 3.166496753693D-08
    9.795910440818D-01 1.702500000000D+02 6.964162999628D-03-7.542814188487D-09
    2.817974522807D-10 1.000000000000D+00 1.685000000000D+03 0.000000000000D+00
    2.000000000000D+00 0.000000000000D+00-1.210719347000D-08 8.000000000000D+00
    6.481800000000D+04 4.000000000000D+00
31 12  4 22 20  0  0.0 2.341251820326D-04 4.206412995700D-12 0.000000000000D+00
    4.700000000000D+01-1.176875000000D+02 4.147672767219D-09 2.589818121623D+00
   -5.785375833511D-06 7.854197639972D-03 6.366521120071D-06 5.153636611938D+03
    7.200000000000D+04 1.508742570877D-07 2.557483765579D+00 1.415610313416D-07
    9.809414974079D-01 2.663125000000D+02-8.681277109923D-01-7.889257190657D-09
   -4.103742365913D-10 1.000000000000D+00 1.685000000000D+03 0.000000000000D+00
    2.000000000000D+00 0.000000000000D+00-1.303851604462D-08 4.700000000000D+01
    6.481800000000D+04 4.000000000000D+00
 1 12  4 22 20  0  0.0 2.508834004402D-04 3.865352482535D-12 0.000000000000D+00
    7.900000000000D+01-2.462500000000D+01 4.536617539759D-09 2.958577947504D+00
   -1.180917024612D-06 6.185746751726D-04 8.340924978256D-06 5.153650115967D+03
    7.200000000000D+04 5.215406417847D-08-6.062054873261D-01-2.421438694000D-08
    9.602381373842D-01 2.189687500000D+02 4.207466927829D-01-7.967831892180D-09
   -4.443042213399D-10 1.000000000000D+00 1.685000000000D+03 0.000000000000D+00
    2.000000000000D+00 0.000000000000D+00 8.381903171539D-09 7.900000000000D+01
    6.481800000000D+04 4.000000000000D+00
17 12  4 22 20  0  0.0 1.339595764875D-04-2.614797267597D-12 0.000000000000D+00
    8.700000000000D+01 1.687500000000D+01 4.864488339751D-09-8.618210009325D-01
    9.108334779739D-07 7.325182552449D-03 5.057081580162D-06 5.153660604477D+03
    7.200000000000D+04 1.043081283569D-07-1.614038867129D+00 1.285225152969D-07
    9.622935680068D-01 2.844375000000D+02-2.302350729669D+00-8.253200921803D-09
    1.675069773380D-10 1.000000000000D+00 1.685000000000D+03 0.000000000000D+00
    2.000000000000D+00 0.000000000000D+00-1.071020960808D-08 8.700000000000D+01
    6.481800000000D+04 4.000000000000D+00
20 12  4 22 20  0  0.0 6.322842091322D-05 0.000000000000D+00 0.000000000000D+00
    1.220000000000D+02 8.840625000000D+01 4.904490005981D-09 9.766768644546D-01
    4.503875970840D-06 5.045291269198D-03 1.054257154465D-05 5.153726221085D+03
    7.200000000000D+04-7.450580596924D-08 4.009282679974D-01 1.117587089539D-08
    9.308766400742D-01 1.570312500000D+02 1.294658363466D+00-8.273916070386D-09
    3.750156209059D-11 1.000000000000D+00 1.685000000000D+03 0.000000000000D+00
    4.000000000000D+00 0.000000000000D+00-7.916241884232D-09 1.220000000000D+02
    6.481800000000D+04 4.000000000000D+00
25 12  4 22 19 59 44.0 3.324029967189D-05 3.410605131648D-13 0.000000000000D+00
    5.000000000000D+00-1.931250000000D+01 4.142672558940D-09 1.221032683815D+00
   -9.499490261078D-07 1.556765637361D-03 1.121498644352D-05 5.153731559753D+03
    7.198400000000D+04-2.793967723846D-08-2.706522298752D+00 2.607703208923D-08
    9.684507853939D-01 1.662812500000D+02 6.273591349976D-01-7.739965257763D-09
    2.771544017362D-10 1.000000000000D+00 1.685000000000D+03 0.000000000000D+00
    2.000000000000D+00 0.000000000000D+00 5.587935447693D-09 5.000000000000D+00
    6.481800000000D+04 4.000000000000D+00
 4 12  4 22 20  0  0.0 1.613898202777D-04 1.148237060988D-11 0.000000000000D+00
    1.020000000000D+02-3.450000000000D+01 5.079497295737D-09 9.259899158368D-01
   -1.640990376472D-06 9.988989331760D-03 8.115544915199D-06 5.153586517334D+03
    7.200000000000D+04-1.750886440277D-07-6.022244351907D-01 0.000000000000D+00
    9.378539971320D-01 2.145625000000D+02 8.478487405775D-01-8.341061724415D-09
   -5.893102614235D-10 1.000000000000D+00 1.685000000000D+03 0.000000000000D+00
    2.800000000000D+00 0.000000000000D+00-6.053596735001D-09 1.020000000000D+02
    6.508800000000D+04 4.000000000000D+00
32 12  4 22 19 59 44.0-4.357546567917D-04-4.433786671143D-12 0.000000000000D+00
    0.000000000000D+00 1.220625000000D+02 4.370182035623D-09-3.099741980330D+00
    6.290152668953D-06 1.181355549488D-02 1.006573438644D-05 5.153706251144D+03
    7.198400000000D+04-1.005828380585D-07 5.325069923908D-01 1.564621925354D-07
    9.523081119811D-01 1.749375000000D+02-5.884697678079D-01-7.789610182817D-09
    1.960795960737D-10 1.000000000000D+00 1.685000000000D+03 0.000000000000D+00
    2.000000000000D+00 0.000000000000D+00-2.793967723846D-09 0.000000000000D+00
    6.535800000000D+04 4.000000000000D+00
 4 12  4 22 19 59 44.0 1.613898202777D-04 1.148237060988D-11 0.000000000000D+00
    1.000000000000D+00-3.450000000000D+01 5.079140138003D-09 9.236560948295D-01
   -1.640990376472D-06 9.988992358558D-03 8.115544915199D-06 5.153586526871D+03
    7.198400000000D+04-1.750886440277D-07-6.022243210831D-01 0.000000000000D+00
    9.378540015208D-01 2.145625000000D+02 8.478486118407D-01-8.341061724415D-09
   -5.893102614235D-10 1.000000000000D+00 1.685000000000D+03 0.000000000000D+00
    2.000000000000D+00 0.000000000000D+00-6.053596735001D-09 1.000000000000D+00
    6.721800000000D+04 4.000000000000D+00
23 12  4 22 20  0  0.0 2.122740261257D-04-3.637978807092D-12 0.000000000000D+00
    1.500000000000D+01 5.412500000000D+01 4.913776107070D-09-2.093533049632D+00
    2.611428499222D-06 7.754152175039D-03 1.907348632812D-06 5.153642211914D+03
    7.200000000000D+04-2.048909664154D-08 1.505684606539D+00-1.769512891769D-07
    9.602630494161D-01 3.468437500000D+02-3.022651474298D+00-8.472138612865D-09
    2.839403986859D-10 1.000000000000D+00 1.685000000000D+03 0.000000000000D+00
    2.000000000000D+00 0.000000000000D+00-2.002343535423D-08 1.500000000000D+01
    6.769800000000D+04 4.000000000000D+00
 2 12  4 22 20  0  0.0 3.876364789903D-04 1.364242052659D-12 0.000000000000D+00
    2.800000000000D+01-3.959375000000D+01 4.934848413387D-09-2.216826862251D+00
   -2.084299921989D-06 1.116448675748D-02 8.339062333107D-06 5.153681600571D+03
    7.200000000000D+04-2.048909664154D-08-6.191684263702D-01-1.899898052216D-07
    9.387805275200D-01 2.066562500000D+02-2.806191694542D+00-8.116409509606D-09
   -3.417999516257D-10 1.000000000000D+00 1.685000000000D+03 0.000000000000D+00
    2.000000000000D+00 0.000000000000D+00-1.722946763039D-08 2.800000000000D+01
    6.847800000000D+04 4.000000000000D+00
29 12  4 22 20  0  0.0 3.058882430196D-04 3.751665644813D-12 0.000000000000D+00
    1.400000000000D+01 1.478125000000D+01 4.824129515787D-09 1.940046651553D+00
    7.040798664093D-07 2.327324822545D-03 4.770234227180D-06 5.153587068558D+03
    7.200000000000D+04 5.587935447693D-08-1.605482674752D+00 2.980232238770D-08
    9.628231048527D-01 2.879062500000D+02-1.154615006350D+00-8.138910446860D-09
    1.450060400836D-10 1.000000000000D+00 1.685000000000D+03 0.000000000000D+00
    2.000000000000D+00 0.000000000000D+00-9.313225746155D-09 1.400000000000D+01
    6.991800000000D+04 4.000000000000D+00
30 12  4 22 19 59 44.0-1.440187916160D-04-1.841726771090D-11 0.000000000000D+00
    6.700000000000D+01-3.753125000000D+01 4.345180994230D-09-9.840743964543D-01
   -1.886859536171D-06 1.098282448947D-02 1.147203147411D-05 5.153646970749D+03
    7.198400000000D+04-1.993030309677D-07-2.797045251293D+00 1.098960638046D-07
    9.597391550453D-01 1.563125000000D+02 1.557028022090D+00-8.003904823334D-09
    2.285809498855D-10 1.000000000000D+00 1.685000000000D+03 0.000000000000D+00
    2.000000000000D+00 0.000000000000D+00-4.190951585770D-09 6.700000000000D+01
    7.027800000000D+04 4.000000000000D+00
10 12  4 22 20  0  0.0-3.616791218519D-05-1.136868377216D-12 0.000000000000D+00
    3.000000000000D+01 8.412500000000D+01 4.679123475703D-09 1.172439251429D-01
    4.500150680542D-06 1.124052400701D-02 9.970739483833D-06 5.153697744370D+03
    7.200000000000D+04 2.421438694000D-08 4.653135440968D-01 1.881271600723D-07
    9.465824949261D-01 1.824062500000D+02 7.508681457922D-01-8.206056100889D-09
    9.536111503035D-11 1.000000000000D+00 1.685000000000D+03 0.000000000000D+00
    2.000000000000D+00 0.000000000000D+00-2.328306436539D-09 3.000000000000D+01
    7.114800000000D+04 4.000000000000D+00
